{
  "type": "FeatureCollection",
  "features": [
    {
      "type": "Feature",
      "properties": {
        "norad_id": 67026,
        "name": "STARLINK-36176",
        "group": "last-30-days",
        "lat": -15.085499232120629,
        "lon": -83.31692447273001,
        "alt_km": 361.0731522035594,
        "timestamp": "2025-12-27T02:10:14.910233+00:00",
        "meta_object_name": "STARLINK-36176",
        "meta_object_id": "2025-293Z",
        "meta_epoch": "2025-12-26T20:00:01.999008",
        "meta_mean_motion": 15.7153336,
        "meta_eccentricity": 0.0003704,
        "meta_inclination": 69.9966,
        "meta_ra_of_asc_node": 283.0422,
        "meta_arg_of_pericenter": 263.6012,
        "meta_mean_anomaly": 66.768,
        "meta_ephemeris_type": 0,
        "meta_classification_type": "U",
        "meta_norad_cat_id": 67026,
        "meta_element_set_no": 999,
        "meta_rev_at_epoch": 248,
        "meta_bstar": -0.014729,
        "meta_mean_motion_dot": -0.01676877,
        "meta_mean_motion_ddot": 0,
        "tle_line1": "1 67026U 25293Z   25360.83335647 -.01676877  00000+0 -14729-1 0  9994",
        "tle_line2": "2 67026  69.9966 283.0422 0003704 263.6012  66.7680 15.71533360  2484"
      },
      "geometry": {
        "type": "Point",
        "coordinates": [
          -83.31692447273001,
          -15.085499232120629
        ]
      }
    },
    {
      "type": "Feature",
      "properties": {
        "norad_id": 67027,
        "name": "STARLINK-36171",
        "group": "last-30-days",
        "lat": -17.043546088970285,
        "lon": -84.09150483446359,
        "alt_km": 361.2878016435079,
        "timestamp": "2025-12-27T02:10:14.910242+00:00",
        "meta_object_name": "STARLINK-36171",
        "meta_object_id": "2025-293AA",
        "meta_epoch": "2025-12-26T20:00:01.999008",
        "meta_mean_motion": 15.71553845,
        "meta_eccentricity": 0.0003754,
        "meta_inclination": 69.9966,
        "meta_ra_of_asc_node": 283.0445,
        "meta_arg_of_pericenter": 259.9886,
        "meta_mean_anomaly": 68.2677,
        "meta_ephemeris_type": 0,
        "meta_classification_type": "U",
        "meta_norad_cat_id": 67027,
        "meta_element_set_no": 999,
        "meta_rev_at_epoch": 248,
        "meta_bstar": -0.014824,
        "meta_mean_motion_dot": -0.01687776,
        "meta_mean_motion_ddot": 0,
        "tle_line1": "1 67027U 25293AA  25360.83335647 -.01687776  00000+0 -14824-1 0  9991",
        "tle_line2": "2 67027  69.9966 283.0445 0003754 259.9886  68.2677 15.71553845  2485"
      },
      "geometry": {
        "type": "Point",
        "coordinates": [
          -84.09150483446359,
          -17.043546088970285
        ]
      }
    },
    {
      "type": "Feature",
      "properties": {
        "norad_id": 67028,
        "name": "STARLINK-36132",
        "group": "last-30-days",
        "lat": -10.788972049530093,
        "lon": -81.66777360088301,
        "alt_km": 360.93447641165403,
        "timestamp": "2025-12-27T02:10:14.910253+00:00",
        "meta_object_name": "STARLINK-36132",
        "meta_object_id": "2025-293AB",
        "meta_epoch": "2025-12-26T20:00:01.999008",
        "meta_mean_motion": 15.7149409,
        "meta_eccentricity": 0.0003824,
        "meta_inclination": 69.997,
        "meta_ra_of_asc_node": 283.0366,
        "meta_arg_of_pericenter": 263.6917,
        "meta_mean_anomaly": 71.3038,
        "meta_ephemeris_type": 0,
        "meta_classification_type": "U",
        "meta_norad_cat_id": 67028,
        "meta_element_set_no": 999,
        "meta_rev_at_epoch": 248,
        "meta_bstar": -0.014795,
        "meta_mean_motion_dot": -0.016811,
        "meta_mean_motion_ddot": 0,
        "tle_line1": "1 67028U 25293AB  25360.83335647 -.01681100  00000+0 -14795-1 0  9994",
        "tle_line2": "2 67028  69.9970 283.0366 0003824 263.6917  71.3038 15.71494090  2480"
      },
      "geometry": {
        "type": "Point",
        "coordinates": [
          -81.66777360088301,
          -10.788972049530093
        ]
      }
    },
    {
      "type": "Feature",
      "properties": {
        "norad_id": 67029,
        "name": "STARLINK-36190",
        "group": "last-30-days",
        "lat": -13.068422557358975,
        "lon": -82.53487652454133,
        "alt_km": 361.0560502110984,
        "timestamp": "2025-12-27T02:10:14.910263+00:00",
        "meta_object_name": "STARLINK-36190",
        "meta_object_id": "2025-293AC",
        "meta_epoch": "2025-12-26T20:00:01.999008",
        "meta_mean_motion": 15.71522144,
        "meta_eccentricity": 0.0003774,
        "meta_inclination": 69.997,
        "meta_ra_of_asc_node": 283.0397,
        "meta_arg_of_pericenter": 262.2496,
        "meta_mean_anomaly": 70.2866,
        "meta_ephemeris_type": 0,
        "meta_classification_type": "U",
        "meta_norad_cat_id": 67029,
        "meta_element_set_no": 999,
        "meta_rev_at_epoch": 248,
        "meta_bstar": -0.014774,
        "meta_mean_motion_dot": -0.01680698,
        "meta_mean_motion_ddot": 0,
        "tle_line1": "1 67029U 25293AC  25360.83335647 -.01680698  00000+0 -14774-1 0  9993",
        "tle_line2": "2 67029  69.9970 283.0397 0003774 262.2496  70.2866 15.71522144  2485"
      },
      "geometry": {
        "type": "Point",
        "coordinates": [
          -82.53487652454133,
          -13.068422557358975
        ]
      }
    },
    {
      "type": "Feature",
      "properties": {
        "norad_id": 67030,
        "name": "STARLINK-36138",
        "group": "last-30-days",
        "lat": -32.63580661678229,
        "lon": -41.91419891859726,
        "alt_km": 380.21384452721395,
        "timestamp": "2025-12-27T02:10:14.910273+00:00",
        "meta_object_name": "STARLINK-36138",
        "meta_object_id": "2025-294A",
        "meta_epoch": "2025-12-26T20:00:01.999008",
        "meta_mean_motion": 15.64438374,
        "meta_eccentricity": 0.0001284,
        "meta_inclination": 42.9995,
        "meta_ra_of_asc_node": 96.2065,
        "meta_arg_of_pericenter": 277.6753,
        "meta_mean_anomaly": 305.3805,
        "meta_ephemeris_type": 0,
        "meta_classification_type": "U",
        "meta_norad_cat_id": 67030,
        "meta_element_set_no": 999,
        "meta_rev_at_epoch": 237,
        "meta_bstar": -0.022242,
        "meta_mean_motion_dot": -0.01940128,
        "meta_mean_motion_ddot": 0,
        "tle_line1": "1 67030U 25294A   25360.83335647 -.01940128  00000+0 -22242-1 0  9992",
        "tle_line2": "2 67030  42.9995  96.2065 0001284 277.6753 305.3805 15.64438374  2377"
      },
      "geometry": {
        "type": "Point",
        "coordinates": [
          -41.91419891859726,
          -32.63580661678229
        ]
      }
    },
    {
      "type": "Feature",
      "properties": {
        "norad_id": 67031,
        "name": "STARLINK-36150",
        "group": "last-30-days",
        "lat": -33.539404064306076,
        "lon": -39.98652088414118,
        "alt_km": 380.1866360203803,
        "timestamp": "2025-12-27T02:10:14.910287+00:00",
        "meta_object_name": "STARLINK-36150",
        "meta_object_id": "2025-294B",
        "meta_epoch": "2025-12-26T20:00:01.999008",
        "meta_mean_motion": 15.64448201,
        "meta_eccentricity": 0.0001385,
        "meta_inclination": 42.9997,
        "meta_ra_of_asc_node": 96.2016,
        "meta_arg_of_pericenter": 278.1945,
        "meta_mean_anomaly": 306.7117,
        "meta_ephemeris_type": 0,
        "meta_classification_type": "U",
        "meta_norad_cat_id": 67031,
        "meta_element_set_no": 999,
        "meta_rev_at_epoch": 256,
        "meta_bstar": -0.022338,
        "meta_mean_motion_dot": -0.01948195,
        "meta_mean_motion_ddot": 0,
        "tle_line1": "1 67031U 25294B   25360.83335647 -.01948195  00000+0 -22338-1 0  9991",
        "tle_line2": "2 67031  42.9997  96.2016 0001385 278.1945 306.7117 15.64448201  2569"
      },
      "geometry": {
        "type": "Point",
        "coordinates": [
          -39.98652088414118,
          -33.539404064306076
        ]
      }
    },
    {
      "type": "Feature",
      "properties": {
        "norad_id": 67032,
        "name": "STARLINK-36131",
        "group": "last-30-days",
        "lat": -35.37707622186001,
        "lon": -35.70122403678951,
        "alt_km": 380.2410926014272,
        "timestamp": "2025-12-27T02:10:14.910297+00:00",
        "meta_object_name": "STARLINK-36131",
        "meta_object_id": "2025-294C",
        "meta_epoch": "2025-12-26T20:00:01.999008",
        "meta_mean_motion": 15.64431255,
        "meta_eccentricity": 0.000137,
        "meta_inclination": 42.9996,
        "meta_ra_of_asc_node": 96.1916,
        "meta_arg_of_pericenter": 274.9576,
        "meta_mean_anomaly": 313.9561,
        "meta_ephemeris_type": 0,
        "meta_classification_type": "U",
        "meta_norad_cat_id": 67032,
        "meta_element_set_no": 999,
        "meta_rev_at_epoch": 237,
        "meta_bstar": -0.022312,
        "meta_mean_motion_dot": -0.01945013,
        "meta_mean_motion_ddot": 0,
        "tle_line1": "1 67032U 25294C   25360.83335647 -.01945013  00000+0 -22312-1 0  9990",
        "tle_line2": "2 67032  42.9996  96.1916 0001370 274.9576 313.9561 15.64431255  2378"
      },
      "geometry": {
        "type": "Point",
        "coordinates": [
          -35.70122403678951,
          -35.37707622186001
        ]
      }
    }
  ]
}